[
    {
        "Altitude(m)": 555978.1841404628,
        "Argument of Periapsis(deg)": 0.019868973332140504,
        "Eccentricity": 0.0,
        "Inclination(deg)": 53.0,
        "Latitude(deg)": 35.223461188363885,
        "Longitude(deg)": -79.32673962865772,
        "Mean Anomaly(deg)": -226.08882139726725,
        "RAAN(deg)": 234.97043010558403,
        "Satellite Name": "Starlink Shell 1 1040",
        "Satellite Number": 1040,
        "Semi-Major Axis(m)": 6931778.249405717,
        "Time(s)": 570
    },
    {
        "Altitude(m)": 555896.5115837882,
        "Argument of Periapsis(deg)": 0.02021755181165174,
        "Eccentricity": 0.0,
        "Inclination(deg)": 53.0,
        "Latitude(deg)": 34.79581705298149,
        "Longitude(deg)": -78.8077307249959,
        "Mean Anomaly(deg)": -225.46199019371053,
        "RAAN(deg)": 234.96991133550654,
        "Satellite Name": "Starlink Shell 1 1040",
        "Satellite Number": 1040,
        "Semi-Major Axis(m)": 6931778.249405717,
        "Time(s)": 580
    },
    {
        "Altitude(m)": 555815.3033752636,
        "Argument of Periapsis(deg)": 0.020566130291162974,
        "Eccentricity": 0.0,
        "Inclination(deg)": 53.0,
        "Latitude(deg)": 34.365589665439,
        "Longitude(deg)": -78.29448923559328,
        "Mean Anomaly(deg)": -224.8351589901538,
        "RAAN(deg)": 234.96939256542913,
        "Satellite Name": "Starlink Shell 1 1040",
        "Satellite Number": 1040,
        "Semi-Major Axis(m)": 6931778.249405717,
        "Time(s)": 590
    },
    {
        "Altitude(m)": 555734.6151994505,
        "Argument of Periapsis(deg)": 0.020914708770674213,
        "Eccentricity": 0.0,
        "Inclination(deg)": 53.0,
        "Latitude(deg)": 33.93284501197728,
        "Longitude(deg)": -77.78689841448139,
        "Mean Anomaly(deg)": -224.20832778659712,
        "RAAN(deg)": 234.96887379535164,
        "Satellite Name": "Starlink Shell 1 1040",
        "Satellite Number": 1040,
        "Semi-Major Axis(m)": 6931778.249405717,
        "Time(s)": 600
    },
    {
        "Altitude(m)": 555654.5026833913,
        "Argument of Periapsis(deg)": 0.021263287250185448,
        "Eccentricity": 0.0,
        "Inclination(deg)": 53.0,
        "Latitude(deg)": 33.49764758906189,
        "Longitude(deg)": -77.2848424056496,
        "Mean Anomaly(deg)": -223.58149658304038,
        "RAAN(deg)": 234.96835502527412,
        "Satellite Name": "Starlink Shell 1 1040",
        "Satellite Number": 1040,
        "Semi-Major Axis(m)": 6931778.249405717,
        "Time(s)": 610
    },
    {
        "Altitude(m)": 555575.0213677575,
        "Argument of Periapsis(deg)": 0.021611865729696686,
        "Eccentricity": 0.0,
        "Inclination(deg)": 53.0,
        "Latitude(deg)": 33.06006043593708,
        "Longitude(deg)": -76.7882058085898,
        "Mean Anomaly(deg)": -222.95466537948369,
        "RAAN(deg)": 234.96783625519672,
        "Satellite Name": "Starlink Shell 1 1040",
        "Satellite Number": 1040,
        "Semi-Major Axis(m)": 6931778.249405717,
        "Time(s)": 620
    },
    {
        "Altitude(m)": 555496.2266779995,
        "Argument of Periapsis(deg)": 0.02196044420920792,
        "Eccentricity": 0.0,
        "Inclination(deg)": 53.0,
        "Latitude(deg)": 32.62014516740916,
        "Longitude(deg)": -76.29687491711299,
        "Mean Anomaly(deg)": -222.32783417592697,
        "RAAN(deg)": 234.96731748511922,
        "Satellite Name": "Starlink Shell 1 1040",
        "Satellite Number": 1040,
        "Semi-Major Axis(m)": 6931778.249405717,
        "Time(s)": 630
    },
    {
        "Altitude(m)": 555418.1738955375,
        "Argument of Periapsis(deg)": 0.02230902268871916,
        "Eccentricity": 0.0,
        "Inclination(deg)": 53.0,
        "Latitude(deg)": 32.17796200676476,
        "Longitude(deg)": -75.8107364295014,
        "Mean Anomaly(deg)": -221.70100297237025,
        "RAAN(deg)": 234.96679871504173,
        "Satellite Name": "Starlink Shell 1 1040",
        "Satellite Number": 1040,
        "Semi-Major Axis(m)": 6931778.249405717,
        "Time(s)": 640
    },
    {
        "Altitude(m)": 555340.9181289152,
        "Argument of Periapsis(deg)": 0.022657601168230398,
        "Eccentricity": 0.0,
        "Inclination(deg)": 53.0,
        "Latitude(deg)": 31.733569818736544,
        "Longitude(deg)": -75.3296786733651,
        "Mean Anomaly(deg)": -221.0741717688135,
        "RAAN(deg)": 234.96627994496427,
        "Satellite Name": "Starlink Shell 1 1040",
        "Satellite Number": 1040,
        "Semi-Major Axis(m)": 6931778.249405717,
        "Time(s)": 650
    },
    {
        "Altitude(m)": 555264.5142850577,
        "Argument of Periapsis(deg)": 0.023006179647741636,
        "Eccentricity": 0.0,
        "Inclination(deg)": 53.0,
        "Latitude(deg)": 31.287026142439668,
        "Longitude(deg)": -74.85359114322493,
        "Mean Anomaly(deg)": -220.44734056525684,
        "RAAN(deg)": 234.96576117488678,
        "Satellite Name": "Starlink Shell 1 1040",
        "Satellite Number": 1040,
        "Semi-Major Axis(m)": 6931778.249405717,
        "Time(s)": 660
    },
    {
        "Altitude(m)": 555189.0170405365,
        "Argument of Periapsis(deg)": 0.023354758127252868,
        "Eccentricity": 0.0,
        "Inclination(deg)": 53.0,
        "Latitude(deg)": 30.838387224207903,
        "Longitude(deg)": -74.38236403221275,
        "Mean Anomaly(deg)": -219.8205093617001,
        "RAAN(deg)": 234.96524240480932,
        "Satellite Name": "Starlink Shell 1 1040",
        "Satellite Number": 1040,
        "Semi-Major Axis(m)": 6931778.249405717,
        "Time(s)": 670
    },
    {
        "Altitude(m)": 555114.4808129246,
        "Argument of Periapsis(deg)": 0.023703336606764106,
        "Eccentricity": 0.0,
        "Inclination(deg)": 53.0,
        "Latitude(deg)": 30.38770805026664,
        "Longitude(deg)": -73.91588927116447,
        "Mean Anomaly(deg)": -219.19367815814337,
        "RAAN(deg)": 234.96472363473185,
        "Satellite Name": "Starlink Shell 1 1040",
        "Satellite Number": 1040,
        "Semi-Major Axis(m)": 6931778.249405717,
        "Time(s)": 680
    },
    {
        "Altitude(m)": 555040.9597322367,
        "Argument of Periapsis(deg)": 0.024051915086275345,
        "Eccentricity": 0.0,
        "Inclination(deg)": 53.0,
        "Latitude(deg)": 29.935042379186214,
        "Longitude(deg)": -73.45406004974423,
        "Mean Anomaly(deg)": -218.56684695458665,
        "RAAN(deg)": 234.96420486465436,
        "Satellite Name": "Starlink Shell 1 1040",
        "Satellite Number": 1040,
        "Semi-Major Axis(m)": 6931778.249405717,
        "Time(s)": 690
    },
    {
        "Altitude(m)": 554968.5076124478,
        "Argument of Periapsis(deg)": 0.024400493565786583,
        "Eccentricity": 0.0,
        "Inclination(deg)": 53.0,
        "Latitude(deg)": 29.480442774065843,
        "Longitude(deg)": -72.99677033283348,
        "Mean Anomaly(deg)": -217.94001575102996,
        "RAAN(deg)": 234.96368609457687,
        "Satellite Name": "Starlink Shell 1 1040",
        "Satellite Number": 1040,
        "Semi-Major Axis(m)": 6931778.249405717,
        "Time(s)": 700
    },
    {
        "Altitude(m)": 554897.1779231563,
        "Argument of Periapsis(deg)": 0.024749072045297815,
        "Eccentricity": 0.0,
        "Inclination(deg)": 53.0,
        "Latitude(deg)": 29.02396063440269,
        "Longitude(deg)": -72.54391588540227,
        "Mean Anomaly(deg)": -217.3131845474732,
        "RAAN(deg)": 234.96316732449947,
        "Satellite Name": "Starlink Shell 1 1040",
        "Satellite Number": 1040,
        "Semi-Major Axis(m)": 6931778.249405717,
        "Time(s)": 710
    },
    {
        "Altitude(m)": 554827.0237613217,
        "Argument of Periapsis(deg)": 0.025097650524809053,
        "Eccentricity": 0.0,
        "Inclination(deg)": 53.0,
        "Latitude(deg)": 28.56564622760803,
        "Longitude(deg)": -72.09539378044157,
        "Mean Anomaly(deg)": -216.68635334391652,
        "RAAN(deg)": 234.96264855442197,
        "Satellite Name": "Starlink Shell 1 1040",
        "Satellite Number": 1040,
        "Semi-Major Axis(m)": 6931778.249405717,
        "Time(s)": 720
    },
    {
        "Altitude(m)": 554758.0978232013,
        "Argument of Periapsis(deg)": 0.02544622900432029,
        "Eccentricity": 0.0,
        "Inclination(deg)": 53.0,
        "Latitude(deg)": 28.10554872013655,
        "Longitude(deg)": -71.65110190313676,
        "Mean Anomaly(deg)": -216.0595221403598,
        "RAAN(deg)": 234.96212978434446,
        "Satellite Name": "Starlink Shell 1 1040",
        "Satellite Number": 1040,
        "Semi-Major Axis(m)": 6931778.249405717,
        "Time(s)": 730
    },
    {
        "Altitude(m)": 554690.4523763967,
        "Argument of Periapsis(deg)": 0.02579480748383153,
        "Eccentricity": 0.0,
        "Inclination(deg)": 53.0,
        "Latitude(deg)": 27.64371620819733,
        "Longitude(deg)": -71.21093996444145,
        "Mean Anomaly(deg)": -215.43269093680308,
        "RAAN(deg)": 234.96161101426702,
        "Satellite Name": "Starlink Shell 1 1040",
        "Satellite Number": 1040,
        "Semi-Major Axis(m)": 6931778.249405717,
        "Time(s)": 740
    },
    {
        "Altitude(m)": 554624.1392321014,
        "Argument of Periapsis(deg)": 0.026143385963342765,
        "Eccentricity": 0.0,
        "Inclination(deg)": 53.0,
        "Latitude(deg)": 27.180195748023472,
        "Longitude(deg)": -70.77480899858072,
        "Mean Anomaly(deg)": -214.80585973324636,
        "RAAN(deg)": 234.96109224418956,
        "Satellite Name": "Starlink Shell 1 1040",
        "Satellite Number": 1040,
        "Semi-Major Axis(m)": 6931778.249405717,
        "Time(s)": 750
    }
]